[{"OBJECT_NAME":"STARLINK-2615","OBJECT_ID":"2021-044AS","EPOCH":"2026-03-09T07:59:46.020192","MEAN_MOTION":15.30189225,"ECCENTRICITY":9.728e-5,"INCLINATION":53.1594,"RA_OF_ASC_NODE":105.3522,"ARG_OF_PERICENTER":93.9178,"MEAN_ANOMALY":266.1934,"EPHEMERIS_TYPE":0,"CLASSIFICATION_TYPE":"U","NORAD_CAT_ID":48678,"ELEMENT_SET_NO":999,"REV_AT_EPOCH":26391,"BSTAR":-9.6376981e-5,"MEAN_MOTION_DOT":-3.211e-5,"MEAN_MOTION_DDOT":0},{"OBJECT_NAME":"PEGASUS DEB","OBJECT_ID":"1994-029AG","EPOCH":"2026-03-09T11:16:42.963744","MEAN_MOTION":15.37636263,"ECCENTRICITY":0.0031206,"INCLINATION":82.0362,"RA_OF_ASC_NODE":86.2933,"ARG_OF_PERICENTER":155.6019,"MEAN_ANOMALY":204.671,"EPHEMERIS_TYPE":0,"CLASSIFICATION_TYPE":"U","NORAD_CAT_ID":23986,"ELEMENT_SET_NO":999,"REV_AT_EPOCH":61542,"BSTAR":0.00061808813,"MEAN_MOTION_DOT":0.00023279,"MEAN_MOTION_DDOT":0}]
